[{"OBJECT_NAME":"IRIDIUM 174","OBJECT_ID":"2023-068U","EPOCH":"2026-03-09T22:04:44.769504","MEAN_MOTION":14.7225064,"ECCENTRICITY":0.00025981,"INCLINATION":86.6101,"RA_OF_ASC_NODE":35.1661,"ARG_OF_PERICENTER":80.0805,"MEAN_ANOMALY":280.0705,"EPHEMERIS_TYPE":0,"CLASSIFICATION_TYPE":"U","NORAD_CAT_ID":56728,"ELEMENT_SET_NO":999,"REV_AT_EPOCH":15141,"BSTAR":0.00022876362,"MEAN_MOTION_DOT":1.467e-5,"MEAN_MOTION_DDOT":0},{"OBJECT_NAME":"COSMOS 2251 DEB","OBJECT_ID":"1993-036BRS","EPOCH":"2026-03-02T04:39:03.704832","MEAN_MOTION":14.64353057,"ECCENTRICITY":0.00599606,"INCLINATION":74.0431,"RA_OF_ASC_NODE":142.7485,"ARG_OF_PERICENTER":231.1694,"MEAN_ANOMALY":128.4114,"EPHEMERIS_TYPE":0,"CLASSIFICATION_TYPE":"U","NORAD_CAT_ID":38060,"ELEMENT_SET_NO":999,"REV_AT_EPOCH":73127,"BSTAR":0.00050932588,"MEAN_MOTION_DOT":2.73e-5,"MEAN_MOTION_DDOT":0}]
